{
  "norad_id": 66427,
  "name": "STARLINK-35611",
  "history": [
    {
      "epoch": "2026-03-28T22:13:19.822368Z",
      "apogee_km": 483.4208641129944,
      "perigee_km": 482.5765327539457,
      "latitude_deg": -1.4783271843187862e-05,
      "longitude_deg": 6.002422889961914,
      "height_km": 482.41719593443895,
      "semi_major_axis_km": 6861.13569843347,
      "eccentricity": 6.153e-05,
      "inclination_deg": 43.0054,
      "raan_deg": 165.6744,
      "arg_perigee_deg": 327.9672,
      "mean_anomaly_deg": 32.1142,
      "mean_motion_rev_day": 15.27596831
    },
    {
      "epoch": "2026-03-29T04:29:57.672384Z",
      "apogee_km": 484.0121534230884,
      "perigee_km": 481.8975649120921,
      "latitude_deg": -7.815842302103593e-06,
      "longitude_deg": -89.88677266189808,
      "height_km": 482.0819635313951,
      "semi_major_axis_km": 6861.09185916759,
      "eccentricity": 0.0001541,
      "inclination_deg": 42.9988,
      "raan_deg": 164.2007,
      "arg_perigee_deg": 52.276,
      "mean_anomaly_deg": 307.8231,
      "mean_motion_rev_day": 15.27611472
    },
    {
      "epoch": "2026-03-29T21:45:41.687136Z",
      "apogee_km": 483.6322156843016,
      "perigee_km": 482.5138384498896,
      "latitude_deg": -2.8902486207245948e-05,
      "longitude_deg": 6.407675969137607,
      "height_km": 482.45170323793974,
      "semi_major_axis_km": 6861.210027067095,
      "eccentricity": 8.15e-05,
      "inclination_deg": 42.9972,
      "raan_deg": 160.1375,
      "arg_perigee_deg": 44.9326,
      "mean_anomaly_deg": 315.1591,
      "mean_motion_rev_day": 15.27572008
    },
    {
      "epoch": "2026-03-30T05:36:28.297440Z",
      "apogee_km": 483.2852450685941,
      "perigee_km": 482.7698343883703,
      "latitude_deg": 6.313508278716389e-06,
      "longitude_deg": -113.45473104969352,
      "height_km": 482.56037368502064,
      "semi_major_axis_km": 6861.164539728482,
      "eccentricity": 3.756e-05,
      "inclination_deg": 42.9973,
      "raan_deg": 158.2915,
      "arg_perigee_deg": 340.177,
      "mean_anomaly_deg": 19.9067,
      "mean_motion_rev_day": 15.27587199
    },
    {
      "epoch": "2026-03-30T11:53:05.672256Z",
      "apogee_km": 483.3679263696895,
      "perigee_km": 482.6501132730946,
      "latitude_deg": 3.970342732814032e-05,
      "longitude_deg": 150.65378723068147,
      "height_km": 482.5891311651821,
      "semi_major_axis_km": 6861.146019821392,
      "eccentricity": 5.231e-05,
      "inclination_deg": 43.0037,
      "raan_deg": 156.8135,
      "arg_perigee_deg": 303.1314,
      "mean_anomaly_deg": 56.9488,
      "mean_motion_rev_day": 15.27593384
    },
    {
      "epoch": "2026-03-31T20:50:23.150400Z",
      "apogee_km": 484.097292995938,
      "perigee_km": 482.00325863935905,
      "latitude_deg": 1.494142300997143e-05,
      "longitude_deg": 7.222729225162596,
      "height_km": 482.84433338574246,
      "semi_major_axis_km": 6861.187275817648,
      "eccentricity": 0.0001526,
      "inclination_deg": 43.0017,
      "raan_deg": 149.0587,
      "arg_perigee_deg": 269.066,
      "mean_anomaly_deg": 91.0017,
      "mean_motion_rev_day": 15.27579606
    },
    {
      "epoch": "2026-04-01T04:41:10.123584Z",
      "apogee_km": 483.7780403265706,
      "perigee_km": 482.27681754951846,
      "latitude_deg": -1.8534947351854518e-05,
      "longitude_deg": -112.6397670835152,
      "height_km": 482.81468963889756,
      "semi_major_axis_km": 6861.164428938045,
      "eccentricity": 0.0001094,
      "inclination_deg": 43.0013,
      "raan_deg": 147.2142,
      "arg_perigee_deg": 269.1852,
      "mean_anomaly_deg": 90.8874,
      "mean_motion_rev_day": 15.27587236
    },
    {
      "epoch": "2026-04-02T19:55:03.908640Z",
      "apogee_km": 484.1069293599621,
      "perigee_km": 481.842762450814,
      "latitude_deg": 3.325680469768981e-05,
      "longitude_deg": 8.042100474497582,
      "height_km": 482.754568257754,
      "semi_major_axis_km": 6861.111845905388,
      "eccentricity": 0.000165,
      "inclination_deg": 42.9991,
      "raan_deg": 137.9813,
      "arg_perigee_deg": 269.852,
      "mean_anomaly_deg": 90.2143,
      "mean_motion_rev_day": 15.27604797
    },
    {
      "epoch": "2026-04-02T19:55:03.910368Z",
      "apogee_km": 484.1067921377262,
      "perigee_km": 481.84289967305085,
      "latitude_deg": 3.168444799768786e-05,
      "longitude_deg": 8.042091577903156,
      "height_km": 482.75456790313126,
      "semi_major_axis_km": 6861.111845905388,
      "eccentricity": 0.00016498,
      "inclination_deg": 42.9991,
      "raan_deg": 137.9813,
      "arg_perigee_deg": 269.852,
      "mean_anomaly_deg": 90.2143,
      "mean_motion_rev_day": 15.27604797
    },
    {
      "epoch": "2026-04-03T03:45:50.575968Z",
      "apogee_km": 483.9734427185567,
      "perigee_km": 481.96588290901764,
      "latitude_deg": -5.6894593124604316e-05,
      "longitude_deg": -111.82227870471124,
      "height_km": 482.84647451800373,
      "semi_major_axis_km": 6861.106662813787,
      "eccentricity": 0.0001463,
      "inclination_deg": 43.0012,
      "raan_deg": 136.1337,
      "arg_perigee_deg": 264.2859,
      "mean_anomaly_deg": 95.7825,
      "mean_motion_rev_day": 15.27606528
    },
    {
      "epoch": "2026-04-04T11:08:59.129664Z",
      "apogee_km": 484.1069772321616,
      "perigee_km": 482.14671415144676,
      "latitude_deg": -1.2458602527598124e-05,
      "longitude_deg": 128.71746249463135,
      "height_km": 482.56074248599504,
      "semi_major_axis_km": 6861.263845691804,
      "eccentricity": 0.00014285,
      "inclination_deg": 43.0008,
      "raan_deg": 128.748,
      "arg_perigee_deg": 290.4779,
      "mean_anomaly_deg": 69.5919,
      "mean_motion_rev_day": 15.27554035
    },
    {
      "epoch": "2026-04-05T10:41:20.631552Z",
      "apogee_km": 484.0632489978352,
      "perigee_km": 482.0064069072505,
      "latitude_deg": -1.1966843764053534e-05,
      "longitude_deg": 129.12084556332334,
      "height_km": 482.36077225405546,
      "semi_major_axis_km": 6861.171827952542,
      "eccentricity": 0.00014989,
      "inclination_deg": 43.0019,
      "raan_deg": 123.2077,
      "arg_perigee_deg": 296.0099,
      "mean_anomaly_deg": 64.0598,
      "mean_motion_rev_day": 15.27584765
    },
    {
      "epoch": "2026-04-05T18:32:06.883296Z",
      "apogee_km": 483.8582878277557,
      "perigee_km": 481.9426861613865,
      "latitude_deg": 2.7627678181614675e-05,
      "longitude_deg": 9.260340396148752,
      "height_km": 482.46483583363664,
      "semi_major_axis_km": 6861.037486994571,
      "eccentricity": 0.0001396,
      "inclination_deg": 43.0007,
      "raan_deg": 121.3621,
      "arg_perigee_deg": 282.8136,
      "mean_anomaly_deg": 77.256,
      "mean_motion_rev_day": 15.27629631
    },
    {
      "epoch": "2026-04-06T02:22:52.881888Z",
      "apogee_km": 483.63247364148174,
      "perigee_km": 482.06734530769154,
      "latitude_deg": -2.754591791749323e-05,
      "longitude_deg": -110.59880821289123,
      "height_km": 482.34853039873985,
      "semi_major_axis_km": 6860.986909474586,
      "eccentricity": 0.00011406,
      "inclination_deg": 43.0011,
      "raan_deg": 119.5169,
      "arg_perigee_deg": 290.8048,
      "mean_anomaly_deg": 69.2681,
      "mean_motion_rev_day": 15.27646523
    },
    {
      "epoch": "2026-04-07T08:11:51.609984Z",
      "apogee_km": 483.03922360765046,
      "perigee_km": 482.7093461850718,
      "latitude_deg": -2.2747247836913616e-06,
      "longitude_deg": 153.91620262090032,
      "height_km": 482.5459463998106,
      "semi_major_axis_km": 6861.011284896361,
      "eccentricity": 2.404e-05,
      "inclination_deg": 42.9977,
      "raan_deg": 112.5011,
      "arg_perigee_deg": 51.2202,
      "mean_anomaly_deg": 308.8671,
      "mean_motion_rev_day": 15.27638382
    },
    {
      "epoch": "2026-04-08T09:18:21.807360Z",
      "apogee_km": 484.0772183889785,
      "perigee_km": 482.14193517953026,
      "latitude_deg": 2.9465202808666972e-05,
      "longitude_deg": 130.34734608184237,
      "height_km": 482.65582016767894,
      "semi_major_axis_km": 6861.246576784254,
      "eccentricity": 0.00014103,
      "inclination_deg": 42.9993,
      "raan_deg": 106.5892,
      "arg_perigee_deg": 283.7739,
      "mean_anomaly_deg": 76.2956,
      "mean_motion_rev_day": 15.27559802
    },
    {
      "epoch": "2026-04-09T07:16:34.010688Z",
      "apogee_km": 483.61889815766153,
      "perigee_km": 482.4987393282936,
      "latitude_deg": 2.6928477756017575e-05,
      "longitude_deg": 154.7280152432678,
      "height_km": 482.89407557478114,
      "semi_major_axis_km": 6861.195818742977,
      "eccentricity": 8.163e-05,
      "inclination_deg": 43.0015,
      "raan_deg": 101.423,
      "arg_perigee_deg": 263.9624,
      "mean_anomaly_deg": 96.1135,
      "mean_motion_rev_day": 15.27576753
    },
    {
      "epoch": "2026-04-10T08:23:03.892704Z",
      "apogee_km": 483.6652811040476,
      "perigee_km": 482.3287321995522,
      "latitude_deg": -2.955736419966256e-06,
      "longitude_deg": 131.16241085145688,
      "height_km": 482.79170194977155,
      "semi_major_axis_km": 6861.1340066518,
      "eccentricity": 9.74e-05,
      "inclination_deg": 43.0005,
      "raan_deg": 95.5131,
      "arg_perigee_deg": 268.4302,
      "mean_anomaly_deg": 91.6438,
      "mean_motion_rev_day": 15.27597396
    },
    {
      "epoch": "2026-04-11T15:46:11.800128Z",
      "apogee_km": 483.97019377843026,
      "perigee_km": 482.07651352082394,
      "latitude_deg": -2.90993198759975e-05,
      "longitude_deg": 11.704074886765781,
      "height_km": 482.69485805724963,
      "semi_major_axis_km": 6861.160353649627,
      "eccentricity": 0.000138,
      "inclination_deg": 43.0002,
      "raan_deg": 88.1267,
      "arg_perigee_deg": 276.3799,
      "mean_anomaly_deg": 83.6895,
      "mean_motion_rev_day": 15.27588597
    }
  ]
}